
# Worst residual: 33.11 km
# MJD 59628.000000 (2022 Feb 18  0:00)
WE0913A = DSCOVR object = 2015-007B = NORAD 40391
1 40391U 15007B   22049.49919926  .00000000  00000-0  00000-0 2 14792
2 40391 035.4813 011.0328 8729422 147.5526 131.3797 00.03872211    07

# Worst residual: 34.01 km
# MJD 59629.000000 (2022 Feb 19  0:00)
WE0913A = DSCOVR object = 2015-007B = NORAD 40391
1 40391U 15007B   22050.49919926  .00000000  00000-0  00000-0 2 14794
2 40391 035.7191 010.7093 8722342 148.0522 143.8480 00.03854489    04

# Worst residual: 33.97 km
# MJD 59630.000000 (2022 Feb 20  0:00)
WE0913A = DSCOVR object = 2015-007B = NORAD 40391
1 40391U 15007B   22051.49919926  .00000000  00000-0  00000-0 2 14795
2 40391 035.9532 010.4182 8710674 148.5198 156.2659 00.03840257    04

# Worst residual: 32.92 km
# MJD 59631.000000 (2022 Feb 21  0:00)
WE0913A = DSCOVR object = 2015-007B = NORAD 40391
1 40391U 15007B   22052.49919926  .00000000  00000-0  00000-0 2 14796
2 40391 036.1759 010.1642 8694831 148.9402 168.6946 00.03829437    07

# Worst residual: 30.79 km
# MJD 59632.000000 (2022 Feb 22  0:00)
WE0913A = DSCOVR object = 2015-007B = NORAD 40391
1 40391U 15007B   22053.49919926  .00000000  00000-0  00000-0 2 14797
2 40391 036.3820 009.9489 8675663 149.3017 181.1928 00.03821814    03

# Worst residual: 27.63 km
# MJD 59633.000000 (2022 Feb 23  0:00)
WE0913A = DSCOVR object = 2015-007B = NORAD 40391
1 40391U 15007B   22054.49919926  .00000000  00000-0  00000-0 2 14798
2 40391 036.5686 009.7705 8654445 149.5976 193.8130 00.03817052    09

# Worst residual: 23.52 km
# MJD 59634.000000 (2022 Feb 24  0:00)
WE0913A = DSCOVR object = 2015-007B = NORAD 40391
1 40391U 15007B   22055.49919926  .00000000  00000-0  00000-0 2 14799
2 40391 036.7356 009.6251 8632853 149.8265 206.5991 00.03814707    04

# Worst residual: 18.55 km
# MJD 59635.000000 (2022 Feb 25  0:00)
WE0913A = DSCOVR object = 2015-007B = NORAD 40391
1 40391U 15007B   22056.49919926  .00000000  00000-0  00000-0 2 14790
2 40391 036.8857 009.5065 8612899 149.9928 219.5842 00.03814249    08

# Worst residual: 12.80 km
# MJD 59636.000000 (2022 Feb 26  0:00)
WE0913A = DSCOVR object = 2015-007B = NORAD 40391
1 40391U 15007B   22057.49919926  .00000000  00000-0  00000-0 2 14791
2 40391 037.0244 009.4082 8596854 150.1075 232.7902 00.03815068    02

# Worst residual: 6.03 km
# MJD 59637.000000 (2022 Feb 27  0:00)
WE0913A = DSCOVR object = 2015-007B = NORAD 40391
1 40391U 15007B   22058.49919926  .00000000  00000-0  00000-0 2 14792
2 40391 037.1617 009.3221 8587183 150.1887 246.2306 00.03816423    01

# Worst residual: 4.79 km
# MJD 59638.000000 (2022 Feb 28  0:00)
WE0913A = DSCOVR object = 2015-007B = NORAD 40391
1 40391U 15007B   22059.49919926  .00000000  00000-0  00000-0 2 14793
2 40391 037.3047 009.2447 8586816 150.2605 259.9114 00.03817467    07

# Worst residual: 15.33 km
# MJD 59639.000000 (2022 Mar  1  0:00)
WE0913A = DSCOVR object = 2015-007B = NORAD 40391
1 40391U 15007B   22060.49919926  .00000000  00000-0  00000-0 2 14795
2 40391 037.4813 009.1648 8599616 150.3559 273.8898 00.03815556    03

# Worst residual: 39.15 km
# MJD 59640.000000 (2022 Mar  2  0:00)
WE0913A = DSCOVR object = 2015-007B = NORAD 40391
1 40391U 15007B   22061.49919926  .00000000  00000-0  00000-0 2 14796
2 40391 037.7509 009.0701 8636320 150.5495 288.3143 00.03804374    02

# Worst residual: 166.36 km
# MJD 59641.000000 (2022 Mar  3  0:00)
WE0913A = DSCOVR object = 2015-007B = NORAD 40391
1 40391U 15007B   22062.49919926  .00000000  00000-0  00000-0 2 14797
2 40391 038.3126 008.9375 8734104 151.0151 303.9957 00.03744020    01
